IRIDIUM 171             
1 43929U 19002H   25070.73558858  .00000029  00000+0  33212-5 0  9998
2 43929  86.4050 187.0836 0001663  95.7499 264.3886 14.34217876322674
IRIDIUM 170             
1 43930U 19002J   25070.78087258  .00000456  00000+0  68389-4 0  9992
2 43930  86.6162 186.8371 0002219  86.4371 273.7099 14.72257625331226
IRIDIUM 167             
1 43931U 19002K   25070.79901897  .00000573  00000+0  19743-3 0  9997
2 43931  86.4041 186.8208 0002016  84.7705 275.3721 14.34219084322682
IRIDIUM 181             
1 56726U 23068S   25070.74874733  .00000282  00000+0  77907-4 0  9997
2 56726  86.4458 249.9247 0001677  83.1191 277.0200 14.43311855 95731
IRIDIUM 177             
1 56727U 23068T   25070.58959060  .00002993  00000+0  39027-3 0  9998
2 56727  86.2031 188.4121 0002240  90.3040 269.8438 14.80237895 97933
IRIDIUM 174             
1 56728U 23068U   25070.78694977  .00002992  00000+0  39043-3 0  9991
2 56728  86.2046 188.4434 0001837 103.0420 257.1006 14.80207409 97964
IRIDIUM 178             
1 56729U 23068V   25070.84912378  .00000179  00000+0  20043-4 0  9993
2 56729  86.5789 218.5120 0001779 119.6491 240.4907 14.80210687 97973
IRIDIUM 179             
1 56730U 23068W   25070.70850617  .00001774  00000+0  23006-3 0  9990
2 56730  86.6781 226.0675 0001836  90.6750 269.4682 14.80223935 97956
